{
  "type": "FeatureCollection",
  "features": [
    {
      "type": "Feature",
      "properties": {
        "norad_id": 66767,
        "name": "TRANSPORTER-15DF",
        "group": "last-30-days",
        "lat": 69.84477278931969,
        "lon": -89.09031174717045,
        "alt_km": 502.7484656052511,
        "timestamp": "2025-12-24T11:32:58.718805+00:00",
        "meta_object_name": "TRANSPORTER-15DF",
        "meta_object_id": "2025-276DF",
        "meta_epoch": "2025-12-24T03:09:50.849856",
        "meta_mean_motion": 15.18336593,
        "meta_eccentricity": 0.0002106,
        "meta_inclination": 97.4368,
        "meta_ra_of_asc_node": 69.719,
        "meta_arg_of_pericenter": 88.6481,
        "meta_mean_anomaly": 271.4994,
        "meta_ephemeris_type": 0,
        "meta_classification_type": "U",
        "meta_norad_cat_id": 66767,
        "meta_element_set_no": 999,
        "meta_rev_at_epoch": 385,
        "meta_bstar": 0.00041742,
        "meta_mean_motion_dot": 8.506e-05,
        "meta_mean_motion_ddot": 0,
        "tle_line1": "1 66767U 25276DF  25358.13183854  .00008506  00000+0  41742-3 0  9999",
        "tle_line2": "2 66767  97.4368  69.7190 0002106  88.6481 271.4994 15.18336593  3853"
      },
      "geometry": {
        "type": "Point",
        "coordinates": [
          -89.09031174717045,
          69.84477278931969
        ]
      }
    },
    {
      "type": "Feature",
      "properties": {
        "norad_id": 66768,
        "name": "TRANSPORTER-15DG",
        "group": "last-30-days",
        "lat": 57.71396485835729,
        "lon": -98.00710366183601,
        "alt_km": 503.6060760723367,
        "timestamp": "2025-12-24T11:32:58.718815+00:00",
        "meta_object_name": "TRANSPORTER-15DG",
        "meta_object_id": "2025-276DG",
        "meta_epoch": "2025-12-24T03:06:34.233696",
        "meta_mean_motion": 15.18540276,
        "meta_eccentricity": 0.0002262,
        "meta_inclination": 97.4355,
        "meta_ra_of_asc_node": 69.7182,
        "meta_arg_of_pericenter": 77.7325,
        "meta_mean_anomaly": 282.4163,
        "meta_ephemeris_type": 0,
        "meta_classification_type": "U",
        "meta_norad_cat_id": 66768,
        "meta_element_set_no": 999,
        "meta_rev_at_epoch": 385,
        "meta_bstar": 0.00054445,
        "meta_mean_motion_dot": 0.00011185,
        "meta_mean_motion_ddot": 0,
        "tle_line1": "1 66768U 25276DG  25358.12956289  .00011185  00000+0  54445-3 0  9990",
        "tle_line2": "2 66768  97.4355  69.7182 0002262  77.7325 282.4163 15.18540276  3855"
      },
      "geometry": {
        "type": "Point",
        "coordinates": [
          -98.00710366183601,
          57.71396485835729
        ]
      }
    },
    {
      "type": "Feature",
      "properties": {
        "norad_id": 66769,
        "name": "TRANSPORTER-15DH",
        "group": "last-30-days",
        "lat": 63.090131453582686,
        "lon": -94.99588334990021,
        "alt_km": 502.65671340243716,
        "timestamp": "2025-12-24T11:32:58.718825+00:00",
        "meta_object_name": "TRANSPORTER-15DH",
        "meta_object_id": "2025-276DH",
        "meta_epoch": "2025-12-24T03:07:59.621088",
        "meta_mean_motion": 15.18416426,
        "meta_eccentricity": 0.0002722,
        "meta_inclination": 97.4416,
        "meta_ra_of_asc_node": 69.7357,
        "meta_arg_of_pericenter": 105.0293,
        "meta_mean_anomaly": 255.1242,
        "meta_ephemeris_type": 0,
        "meta_classification_type": "U",
        "meta_norad_cat_id": 66769,
        "meta_element_set_no": 999,
        "meta_rev_at_epoch": 385,
        "meta_bstar": 0.00029868,
        "meta_mean_motion_dot": 6.08e-05,
        "meta_mean_motion_ddot": 0,
        "tle_line1": "1 66769U 25276DH  25358.13055117  .00006080  00000+0  29868-3 0  9991",
        "tle_line2": "2 66769  97.4416  69.7357 0002722 105.0293 255.1242 15.18416426  3852"
      },
      "geometry": {
        "type": "Point",
        "coordinates": [
          -94.99588334990021,
          63.090131453582686
        ]
      }
    },
    {
      "type": "Feature",
      "properties": {
        "norad_id": 66770,
        "name": "TRANSPORTER-15DJ",
        "group": "last-30-days",
        "lat": 61.42208726493643,
        "lon": -96.01836928851763,
        "alt_km": 502.4075722085854,
        "timestamp": "2025-12-24T11:32:58.718837+00:00",
        "meta_object_name": "TRANSPORTER-15DJ",
        "meta_object_id": "2025-276DJ",
        "meta_epoch": "2025-12-24T03:07:31.859040",
        "meta_mean_motion": 15.18400722,
        "meta_eccentricity": 0.0003342,
        "meta_inclination": 97.4447,
        "meta_ra_of_asc_node": 69.7464,
        "meta_arg_of_pericenter": 119.8153,
        "meta_mean_anomaly": 240.3414,
        "meta_ephemeris_type": 0,
        "meta_classification_type": "U",
        "meta_norad_cat_id": 66770,
        "meta_element_set_no": 999,
        "meta_rev_at_epoch": 385,
        "meta_bstar": 0.00044015,
        "meta_mean_motion_dot": 8.991e-05,
        "meta_mean_motion_ddot": 0,
        "tle_line1": "1 66770U 25276DJ  25358.13022985  .00008991  00000+0  44015-3 0  9994",
        "tle_line2": "2 66770  97.4447  69.7464 0003342 119.8153 240.3414 15.18400722  3853"
      },
      "geometry": {
        "type": "Point",
        "coordinates": [
          -96.01836928851763,
          61.42208726493643
        ]
      }
    },
    {
      "type": "Feature",
      "properties": {
        "norad_id": 66771,
        "name": "TRANSPORTER-15DK",
        "group": "last-30-days",
        "lat": 58.71523571393486,
        "lon": -97.483413185912,
        "alt_km": 502.6830973695296,
        "timestamp": "2025-12-24T11:32:58.718847+00:00",
        "meta_object_name": "TRANSPORTER-15DK",
        "meta_object_id": "2025-276DK",
        "meta_epoch": "2025-12-24T03:06:49.389120",
        "meta_mean_motion": 15.18485468,
        "meta_eccentricity": 0.0003052,
        "meta_inclination": 97.4441,
        "meta_ra_of_asc_node": 69.7447,
        "meta_arg_of_pericenter": 112.1124,
        "meta_mean_anomaly": 248.0434,
        "meta_ephemeris_type": 0,
        "meta_classification_type": "U",
        "meta_norad_cat_id": 66771,
        "meta_element_set_no": 999,
        "meta_rev_at_epoch": 385,
        "meta_bstar": 0.00051708,
        "meta_mean_motion_dot": 0.00010602,
        "meta_mean_motion_ddot": 0,
        "tle_line1": "1 66771U 25276DK  25358.12973830  .00010602  00000+0  51708-3 0  9997",
        "tle_line2": "2 66771  97.4441  69.7447 0003052 112.1124 248.0434 15.18485468  3858"
      },
      "geometry": {
        "type": "Point",
        "coordinates": [
          -97.483413185912,
          58.71523571393486
        ]
      }
    },
    {
      "type": "Feature",
      "properties": {
        "norad_id": 66772,
        "name": "TRANSPORTER-15DL",
        "group": "last-30-days",
        "lat": 45.05606504409061,
        "lon": -102.3798859354597,
        "alt_km": 504.23792185543334,
        "timestamp": "2025-12-24T11:32:58.718856+00:00",
        "meta_object_name": "TRANSPORTER-15DL",
        "meta_object_id": "2025-276DL",
        "meta_epoch": "2025-12-24T03:03:13.237920",
        "meta_mean_motion": 15.18701758,
        "meta_eccentricity": 0.0003019,
        "meta_inclination": 97.4433,
        "meta_ra_of_asc_node": 69.7446,
        "meta_arg_of_pericenter": 100.3817,
        "meta_mean_anomaly": 259.7758,
        "meta_ephemeris_type": 0,
        "meta_classification_type": "U",
        "meta_norad_cat_id": 66772,
        "meta_element_set_no": 999,
        "meta_rev_at_epoch": 385,
        "meta_bstar": 0.00043045,
        "meta_mean_motion_dot": 8.868e-05,
        "meta_mean_motion_ddot": 0,
        "tle_line1": "1 66772U 25276DL  25358.12723655  .00008868  00000+0  43045-3 0  9992",
        "tle_line2": "2 66772  97.4433  69.7446 0003019 100.3817 259.7758 15.18701758  3851"
      },
      "geometry": {
        "type": "Point",
        "coordinates": [
          -102.3798859354597,
          45.05606504409061
        ]
      }
    },
    {
      "type": "Feature",
      "properties": {
        "norad_id": 66773,
        "name": "TRANSPORTER-15DM",
        "group": "last-30-days",
        "lat": 52.3080371081529,
        "lon": -100.17006224239736,
        "alt_km": 503.44674527038205,
        "timestamp": "2025-12-24T11:32:58.718867+00:00",
        "meta_object_name": "TRANSPORTER-15DM",
        "meta_object_id": "2025-276DM",
        "meta_epoch": "2025-12-24T03:05:06.820224",
        "meta_mean_motion": 15.18542162,
        "meta_eccentricity": 0.0003211,
        "meta_inclination": 97.4428,
        "meta_ra_of_asc_node": 69.742,
        "meta_arg_of_pericenter": 99.8341,
        "meta_mean_anomaly": 260.3256,
        "meta_ephemeris_type": 0,
        "meta_classification_type": "U",
        "meta_norad_cat_id": 66773,
        "meta_element_set_no": 999,
        "meta_rev_at_epoch": 385,
        "meta_bstar": 0.00047813,
        "meta_mean_motion_dot": 9.813e-05,
        "meta_mean_motion_ddot": 0,
        "tle_line1": "1 66773U 25276DM  25358.12855116  .00009813  00000+0  47813-3 0  9999",
        "tle_line2": "2 66773  97.4428  69.7420 0003211  99.8341 260.3256 15.18542162  3859"
      },
      "geometry": {
        "type": "Point",
        "coordinates": [
          -100.17006224239736,
          52.3080371081529
        ]
      }
    }
  ]
}